ONEWEB-0628             
1 55169U 23004AF  26027.21380065 -.00000082  00000+0 -26290-3 0  9990
2 55169  87.8943  18.6362 0002449  79.9376 280.2028 13.12441283149547
ONEWEB-0629             
1 55170U 23004AG  26027.02408697  .00000006  00000+0 -18695-4 0  9999
2 55170  87.9083  33.9249 0001927  79.3200 280.8149 13.17648149148992
ONEWEB-0631             
1 55171U 23004AH  26026.89498340  .00000022  00000+0  23148-4 0  9994
2 55171  87.9202   3.4833 0001985 100.7554 259.3802 13.18686048151051
ONEWEB-0709             
1 55172U 23004AJ  26027.28421312  .00000335  00000+0  91011-3 0  9994
2 55172  87.8811  49.1277 0001561 122.7103 237.4176 13.11414424147405
ONEWEB-0710             
1 55173U 23004AK  26026.96248971  .00000056  00000+0  11143-3 0  9995
2 55173  87.9084  33.9319 0002006  90.7192 269.4170 13.17651529148982
ONEWEB-0711             
1 55174U 23004AL  26027.33168315 -.00000082  00000+0 -26770-3 0  9994
2 55174  87.8823  49.0958 0002579  92.0620 268.0804 13.11417726147370
ONEWEB-0713             
1 55175U 23004AM  26027.12145672  .00000682  00000+0  18871-2 0  9999
2 55175  87.8818  49.1387 0002249  93.7804 266.3581 13.11416714147333
ONEWEB-0715             
1 55176U 23004AN  26027.11635920  .00000487  00000+0  13388-2 0  9990
2 55176  87.8818  49.1403 0001967 114.6103 245.5230 13.11416081147375
